OBJECT_NAME,OBJECT_ID,EPOCH,MEAN_MOTION,ECCENTRICITY,INCLINATION,RA_OF_ASC_NODE,ARG_OF_PERICENTER,MEAN_ANOMALY,EPHEMERIS_TYPE,CLASSIFICATION_TYPE,NORAD_CAT_ID,ELEMENT_SET_NO,REV_AT_EPOCH,BSTAR,MEAN_MOTION_DOT,MEAN_MOTION_DDOT
SMILE,2026-109A,2026-06-07T09:11:54.544416,7.54049028,.3310191,69.9787,209.3069,288.5544,45.7342,0,U,69123,999,248,-.36778157E-3,-.41E-6,0
STARLINK-37726,2026-110A,2026-06-17T21:05:56.214240,15.49203458,.00014328,97.2839,5.1031,91.0979,269.0436,0,U,69124,999,570,.30451408E-3,.16514E-3,0
STARLINK-37722,2026-110B,2026-06-17T19:39:20.215008,15.38668579,.0002193,97.2847,5.1856,71.8107,288.3377,0,U,69125,999,570,-.33823231E-1,-.1175615E-1,0
STARLINK-37715,2026-110C,2026-06-17T22:57:30.360960,15.33452475,.00009365,97.2873,5.3054,89.1799,270.9551,0,U,69126,999,572,.58399444E-3,.1883E-3,0
STARLINK-37706,2026-110D,2026-06-17T11:55:49.095264,15.33452277,.00019727,97.2841,4.8602,91.7666,268.3802,0,U,69127,999,565,.37161635E-3,.11944E-3,0
STARLINK-37723,2026-110E,2026-06-17T11:51:54.211680,15.33455557,.00017067,97.2838,4.8625,86.9366,273.2072,0,U,69128,999,565,.36669416E-3,.11786E-3,0
STARLINK-37720,2026-110F,2026-06-17T13:08:13.455744,15.49208166,.000152,97.2839,4.7914,94.2231,265.9194,0,U,69129,999,565,.64592E-3,.3522E-3,0
STARLINK-37533,2026-110G,2026-06-17T22:00:01.999584,15.33381661,.00015423,97.2848,5.2977,98.0097,116.9534,0,U,69130,999,577,.28858222E-2,.94071E-3,0
STARLINK-37530,2026-110H,2026-06-17T22:00:01.999584,15.33390534,.00019833,97.2845,5.3046,91.5226,138.4357,0,U,69131,999,577,.27384269E-2,.89232E-3,0
STARLINK-37660,2026-110J,2026-06-17T22:00:01.999584,15.36923375,.00017875,97.2849,5.2968,88.4585,131.0769,0,U,69132,999,577,.26057558E-2,.9506E-3,0
STARLINK-37633,2026-110K,2026-06-17T22:00:01.999584,15.34080948,.00019617,97.2848,5.3180,97.5628,162.0698,0,U,69133,999,577,-.33659753E-1,-.1021625E-1,0
STARLINK-37361,2026-110L,2026-06-17T22:00:01.999584,15.33382993,.00019535,97.2846,5.3257,92.7696,182.1933,0,U,69134,999,577,.29916131E-2,.97573E-3,0
STARLINK-37372,2026-110M,2026-06-17T22:00:01.999584,15.36918089,.00010306,97.2849,5.3209,68.5387,203.3888,0,U,69135,999,577,.27053539E-2,.98726E-3,0
STARLINK-37531,2026-110N,2026-06-17T22:00:01.999584,15.33397075,.00017929,97.2845,5.3358,98.4311,206.5033,0,U,69136,999,577,.27066388E-2,.882E-3,0
STARLINK-37662,2026-110P,2026-06-17T22:00:01.999584,15.36914618,.00010703,97.2852,5.3231,80.5936,200.8983,0,U,69137,999,577,.27724461E-2,.101198E-2,0
STARLINK-37658,2026-110Q,2026-06-17T22:44:27.491424,15.49223821,.00013337,97.2853,5.3176,2.5788,357.5470,0,U,69138,999,572,.64069461E-3,.34952E-3,0
STARLINK-37659,2026-110R,2026-06-17T22:55:32.343744,15.49229356,.00011002,97.2849,5.3056,68.2393,291.8976,0,U,69139,999,572,.84487278E-3,.46195E-3,0
STARLINK-37653,2026-110S,2026-06-17T22:59:05.373312,15.49219694,.00008755,97.2846,5.3031,21.7011,338.4277,0,U,69140,999,572,.74991841E-3,.40951E-3,0
STARLINK-37654,2026-110T,2026-06-17T20:34:22.028160,15.38716866,.00020476,97.2847,5.2866,96.3549,263.7930,0,U,69141,999,571,-.36286558E-1,-.1255059E-1,0
STARLINK-37655,2026-110U,2026-06-17T22:00:01.999584,15.36926499,.0001103,97.2849,5.3593,103.6703,259.6636,0,U,69142,999,577,.26395526E-2,.96318E-3,0
STARLINK-37636,2026-110V,2026-06-17T22:00:01.999584,15.33404698,.00019136,97.2847,5.3810,81.6613,328.1774,0,U,69143,999,577,.30083142E-2,.98193E-3,0
STARLINK-37638,2026-110W,2026-06-17T22:00:01.999584,15.33393017,.0001211,97.2848,5.3872,97.6398,327.3133,0,U,69144,999,577,.29903176E-2,.9756E-3,0
STARLINK-37657,2026-110X,2026-06-17T12:38:35.141568,15.49212420,.00013028,97.2820,4.9711,96.0721,264.0679,0,U,69145,999,566,.57347262E-3,.31248E-3,0
STARLINK-37639,2026-110Y,2026-06-17T22:00:01.999584,15.33394447,.00014285,97.2851,5.4011,84.6994,10.1302,0,U,69146,999,582,.34216516E-2,.11186E-2,0
STARLINK-37661,2026-110Z,2026-06-17T13:09:28.660896,15.49205276,.0001221,97.2808,4.9399,68.1818,291.9563,0,U,69147,999,566,.60437E-3,.32936E-3,0
STARLINK-37395,2026-111A,2026-06-17T22:00:01.999584,15.57296519,.00012972,53.1602,148.5975,101.4774,46.8282,0,U,69148,999,566,-.12736681E-1,-.864546E-2,0
STARLINK-37346,2026-111B,2026-06-17T22:00:01.999584,15.49275847,.0001343,53.1603,149.3294,94.1252,52.2527,0,U,69149,999,566,.11050514E-2,.61423E-3,0
STARLINK-37332,2026-111C,2026-06-17T03:29:05.102016,15.49339469,.00011766,53.1605,153.3440,97.5302,262.5841,0,U,69150,999,423,.79880057E-3,.44278E-3,0
STARLINK-37297,2026-111D,2026-06-17T22:00:01.999584,15.49945148,.00008775,53.1604,148.6098,95.8480,45.5318,0,U,69151,999,566,-.18577164E-1,-.967627E-2,0
STARLINK-37317,2026-111E,2026-06-17T22:00:01.999584,15.55209009,.00014466,53.1609,148.4065,102.7025,138.6576,0,U,69152,999,566,-.40712529E-1,-.2440706E-1,0
