SMILE                   
1 69123U 26109A   26158.38327019 -.00000041  00000+0 -36778-3 0  9994
2 69123  69.9787 209.3069 3310191 288.5544  45.7342  7.54049028  2480
STARLINK-37726          
1 69124U 26110A   26168.87912285  .00016514  00000+0  30451-3 0  9999
2 69124  97.2839   5.1031 0001432  91.0979 269.0436 15.49203458  5700
STARLINK-37722          
1 69125U 26110B   26168.81898397 -.01175615  00000+0 -33823-1 0  9996
2 69125  97.2847   5.1856 0002193  71.8107 288.3377 15.38668579  5704
STARLINK-37715          
1 69126U 26110C   26168.95660140  .00018830  00000+0  58399-3 0  9994
2 69126  97.2873   5.3054 0000936  89.1799 270.9551 15.33452475  5722
STARLINK-37706          
1 69127U 26110D   26168.49709601  .00011944  00000+0  37162-3 0  9994
2 69127  97.2841   4.8602 0001972  91.7666 268.3802 15.33452277  5656
STARLINK-37723          
1 69128U 26110E   26168.49437745  .00011786  00000+0  36669-3 0  9997
2 69128  97.2838   4.8625 0001706  86.9366 273.2072 15.33455557  5654
STARLINK-37720          
1 69129U 26110F   26168.54737796  .00035220  00000+0  64592-3 0  9998
2 69129  97.2839   4.7914 0001520  94.2231 265.9194 15.49208166  5655
STARLINK-37533          
1 69130U 26110G   26168.91668981  .00094071  00000+0  28858-2 0  9993
2 69130  97.2848   5.2977 0001542  98.0097 116.9534 15.33381661  5779
STARLINK-37530          
1 69131U 26110H   26168.91668981  .00089232  00000+0  27384-2 0  9990
2 69131  97.2845   5.3046 0001983  91.5226 138.4357 15.33390534  5777
STARLINK-37660          
1 69132U 26110J   26168.91668981  .00095060  00000+0  26058-2 0  9994
2 69132  97.2849   5.2968 0001787  88.4585 131.0769 15.36923375  5773
STARLINK-37633          
1 69133U 26110K   26168.91668981 -.01021625  00000+0 -33660-1 0  9990
2 69133  97.2848   5.3180 0001961  97.5628 162.0698 15.34080948  5776
STARLINK-37361          
1 69134U 26110L   26168.91668981  .00097573  00000+0  29916-2 0  9993
2 69134  97.2846   5.3257 0001953  92.7696 182.1933 15.33382993  5772
STARLINK-37372          
1 69135U 26110M   26168.91668981  .00098726  00000+0  27054-2 0  9996
2 69135  97.2849   5.3209 0001030  68.5387 203.3888 15.36918089  5776
STARLINK-37531          
1 69136U 26110N   26168.91668981  .00088200  00000+0  27066-2 0  9996
2 69136  97.2845   5.3358 0001792  98.4311 206.5033 15.33397075  5772
STARLINK-37662          
1 69137U 26110P   26168.91668981  .00101198  00000+0  27724-2 0  9990
2 69137  97.2852   5.3231 0001070  80.5936 200.8983 15.36914618  5777
STARLINK-37658          
1 69138U 26110Q   26168.94754041  .00034952  00000+0  64069-3 0  9994
2 69138  97.2853   5.3176 0001333   2.5788 357.5470 15.49223821  5727
STARLINK-37659          
1 69139U 26110R   26168.95523546  .00046195  00000+0  84487-3 0  9998
2 69139  97.2849   5.3056 0001100  68.2393 291.8976 15.49229356  5723
STARLINK-37653          
1 69140U 26110S   26168.95770108  .00040951  00000+0  74992-3 0  9992
2 69140  97.2846   5.3031 0000875  21.7011 338.4277 15.49219694  5720
STARLINK-37654          
1 69141U 26110T   26168.85719940 -.01255059  00000+0 -36287-1 0  9992
2 69141  97.2847   5.2866 0002047  96.3549 263.7930 15.38716866  5710
STARLINK-37655          
1 69142U 26110U   26168.91668981  .00096318  00000+0  26396-2 0  9997
2 69142  97.2849   5.3593 0001103 103.6703 259.6636 15.36926499  5773
STARLINK-37636          
1 69143U 26110V   26168.91668981  .00098193  00000+0  30083-2 0  9999
2 69143  97.2847   5.3810 0001913  81.6613 328.1774 15.33404698  5772
STARLINK-37638          
1 69144U 26110W   26168.91668981  .00097560  00000+0  29903-2 0  9996
2 69144  97.2848   5.3872 0001211  97.6398 327.3133 15.33393017  5772
STARLINK-37657          
1 69145U 26110X   26168.52679562  .00031248  00000+0  57347-3 0  9996
2 69145  97.2820   4.9711 0001302  96.0721 264.0679 15.49212420  5669
STARLINK-37639          
1 69146U 26110Y   26168.91668981  .00111860  00000+0  34217-2 0  9992
2 69146  97.2851   5.4011 0001428  84.6994  10.1302 15.33394447  5821
STARLINK-37661          
1 69147U 26110Z   26168.54824839  .00032936  00000+0  60437-3 0  9998
2 69147  97.2808   4.9399 0001221  68.1818 291.9563 15.49205276  5668
STARLINK-37395          
1 69148U 26111A   26168.91668981 -.00864546  00000+0 -12737-1 0  9995
2 69148  53.1602 148.5975 0001297 101.4774  46.8282 15.57296519  5666
STARLINK-37346          
1 69149U 26111B   26168.91668981  .00061423  00000+0  11051-2 0  9996
2 69149  53.1603 149.3294 0001343  94.1252  52.2527 15.49275847  5667
STARLINK-37332          
1 69150U 26111C   26168.14519794  .00044278  00000+0  79880-3 0  9994
2 69150  53.1605 153.3440 0001176  97.5302 262.5841 15.49339469  4234
STARLINK-37297          
1 69151U 26111D   26168.91668981 -.00967627  00000+0 -18577-1 0  9991
2 69151  53.1604 148.6098 0000877  95.8480  45.5318 15.49945148  5668
STARLINK-37317          
1 69152U 26111E   26168.91668981 -.02440706  00000+0 -40713-1 0  9995
2 69152  53.1609 148.4065 0001446 102.7025 138.6576 15.55209009  5668
